start=new Date('2023-01-09T00:00:00.000Z').valueOf();
sats=[{"OBJECT_NAME":"STARLINK-3834","GP_ID":"222498669","FILE":"3736460","BSTAR":"0.00042614000000","ECCENTRICITY":"0.00030650","PERIOD":"95.438","TLE_LINE2":"2 52368  53.2195 337.4802 0003065  25.6375 334.4768 15.08839863 41438","LAUNCH_DATE":"2022-04-29","SEMIMAJOR_AXIS":"6917.881","DECAY_DATE":null,"CLASSIFICATION_TYPE":"U","MEAN_ELEMENT_THEORY":"SGP4","RA_OF_ASC_NODE":"337.4802","RCS_SIZE":"LARGE","MEAN_MOTION_DDOT":"0.0000000000000","CENTER_NAME":"EARTH","REV_AT_EPOCH":"4143","INCLINATION":"53.2195","EPOCH":"2023-01-08T22:34:12.972288","EPHEMERIS_TYPE":"0","MEAN_ANOMALY":"334.4768","TLE_LINE1":"1 52368U 22045AP  23008.94042792  .00006500  00000-0  42614-3 0  9998","ELEMENT_SET_NO":"999","OBJECT_ID":"2022-045AP","SITE":"AFETR","NORAD_CAT_ID":"52368","APOAPSIS":"541.866","ARG_OF_PERICENTER":"25.6375","MEAN_MOTION_DOT":"0.00006500","OBJECT_TYPE":"PAYLOAD","MEAN_MOTION":"15.08839863","COUNTRY_CODE":"US","REF_FRAME":"TEME","TIME_SYSTEM":"UTC","PERIAPSIS":"537.625"},{"REV_AT_EPOCH":"4143","INCLINATION":"53.2184","EPOCH":"2023-01-08T21:20:01.198464","EPHEMERIS_TYPE":"0","MEAN_ANOMALY":"342.1148","TLE_LINE1":"1 52369U 22045AQ  23008.88890276  .00003915  00000-0  26394-3 0  9994","ELEMENT_SET_NO":"999","OBJECT_ID":"2022-045AQ","OBJECT_NAME":"STARLINK-3841","GP_ID":"222499920","FILE":"3736460","BSTAR":"0.00026394000000","PERIOD":"95.438","ECCENTRICITY":"0.00031850","LAUNCH_DATE":"2022-04-29","TLE_LINE2":"2 52369  53.2184 337.7154 0003185  17.9957 342.1148 15.08840697 41438","SEMIMAJOR_AXIS":"6917.878","DECAY_DATE":null,"CLASSIFICATION_TYPE":"U","MEAN_ELEMENT_THEORY":"SGP4","RA_OF_ASC_NODE":"337.7154","RCS_SIZE":"LARGE","MEAN_MOTION_DDOT":"0.0000000000000","CENTER_NAME":"EARTH","COUNTRY_CODE":"US","REF_FRAME":"TEME","TIME_SYSTEM":"UTC","PERIAPSIS":"537.540","SITE":"AFETR","NORAD_CAT_ID":"52369","APOAPSIS":"541.947","ARG_OF_PERICENTER":"17.9957","MEAN_MOTION_DOT":"0.00003915","OBJECT_TYPE":"PAYLOAD","MEAN_MOTION":"15.08840697"},{"DECAY_DATE":null,"SEMIMAJOR_AXIS":"6917.880","CLASSIFICATION_TYPE":"U","MEAN_ELEMENT_THEORY":"SGP4","RA_OF_ASC_NODE":"338.6406","RCS_SIZE":"LARGE","MEAN_MOTION_DDOT":"0.0000000000000","CENTER_NAME":"EARTH","GP_ID":"222500171","FILE":"3736460","OBJECT_NAME":"STARLINK-3827","BSTAR":"0.00026723000000","ECCENTRICITY":"0.00020040","PERIOD":"95.438","TLE_LINE2":"2 52370  53.2168 338.6406 0002004  37.1694 322.9436 15.08840004 41408","LAUNCH_DATE":"2022-04-29","EPHEMERIS_TYPE":"0","MEAN_ANOMALY":"322.9436","TLE_LINE1":"1 52370U 22045AR  23008.68282412  .00003967  00000-0  26723-3 0  9994","ELEMENT_SET_NO":"999","OBJECT_ID":"2022-045AR","REV_AT_EPOCH":"4140","INCLINATION":"53.2168","EPOCH":"2023-01-08T16:23:16.003968","MEAN_MOTION":"15.08840004","SITE":"AFETR","NORAD_CAT_ID":"52370","APOAPSIS":"541.132","ARG_OF_PERICENTER":"37.1694","MEAN_MOTION_DOT":"0.00003967","OBJECT_TYPE":"PAYLOAD","REF_FRAME":"TEME","TIME_SYSTEM":"UTC","PERIAPSIS":"538.359","COUNTRY_CODE":"US"},{"MEAN_MOTION_DDOT":"0.0000000000000","CENTER_NAME":"EARTH","RCS_SIZE":"LARGE","RA_OF_ASC_NODE":"338.9536","DECAY_DATE":null,"SEMIMAJOR_AXIS":"6917.878","MEAN_ELEMENT_THEORY":"SGP4","CLASSIFICATION_TYPE":"U","LAUNCH_DATE":"2022-04-29","TLE_LINE2":"2 52371  53.2196 338.9536 0002892  32.9754 327.1418 15.08840637 41388","PERIOD":"95.438","ECCENTRICITY":"0.00028920","BSTAR":"0.00008175500000","FILE":"3736460","GP_ID":"222498919","OBJECT_NAME":"STARLINK-3798","TLE_LINE1":"1 52371U 22045AS  23008.61291035  .00001013  00000-0  81755-4 0  9996","ELEMENT_SET_NO":"999","OBJECT_ID":"2022-045AS","EPHEMERIS_TYPE":"0","MEAN_ANOMALY":"327.1418","EPOCH":"2023-01-08T14:42:35.454240","INCLINATION":"53.2196","REV_AT_EPOCH":"4138","MEAN_MOTION":"15.08840637","APOAPSIS":"541.744","NORAD_CAT_ID":"52371","OBJECT_TYPE":"PAYLOAD","MEAN_MOTION_DOT":"0.00001013","ARG_OF_PERICENTER":"32.9754","SITE":"AFETR","PERIAPSIS":"537.743","TIME_SYSTEM":"UTC","REF_FRAME":"TEME","COUNTRY_CODE":"US"},{"CLASSIFICATION_TYPE":"U","MEAN_ELEMENT_THEORY":"SGP4","DECAY_DATE":null,"SEMIMAJOR_AXIS":"6917.864","CENTER_NAME":"EARTH","MEAN_MOTION_DDOT":"0.0000000000000","RCS_SIZE":"LARGE","RA_OF_ASC_NODE":"338.9877","BSTAR":"0.00063000000000","FILE":"3736460","GP_ID":"222499169","OBJECT_NAME":"STARLINK-3796","TLE_LINE2":"2 52372  53.2192 338.9877 0003003  24.8482 335.2654 15.08845255 41389","LAUNCH_DATE":"2022-04-29","ECCENTRICITY":"0.00030030","PERIOD":"95.437","MEAN_ANOMALY":"335.2654","EPHEMERIS_TYPE":"0","ELEMENT_SET_NO":"999","OBJECT_ID":"2022-045AT","TLE_LINE1":"1 52372U 22045AT  23008.60554467  .00009754  00000-0  63000-3 0  9999","INCLINATION":"53.2192","REV_AT_EPOCH":"4138","EPOCH":"2023-01-08T14:31:59.059488","MEAN_MOTION":"15.08845255","SITE":"AFETR","MEAN_MOTION_DOT":"0.00009754","OBJECT_TYPE":"PAYLOAD","ARG_OF_PERICENTER":"24.8482","APOAPSIS":"541.807","NORAD_CAT_ID":"52372","REF_FRAME":"TEME","PERIAPSIS":"537.652","TIME_SYSTEM":"UTC","COUNTRY_CODE":"US"},{"ARG_OF_PERICENTER":"23.7277","MEAN_MOTION_DOT":"0.00002735","OBJECT_TYPE":"PAYLOAD","NORAD_CAT_ID":"52373","APOAPSIS":"541.370","SITE":"AFETR","MEAN_MOTION":"15.08861021","COUNTRY_CODE":"US","TIME_SYSTEM":"UTC","PERIAPSIS":"537.992","REF_FRAME":"TEME","ECCENTRICITY":"0.00024410","PERIOD":"95.436","LAUNCH_DATE":"2022-04-29","TLE_LINE2":"2 52373  53.2195 337.5450 0002441  23.7277 336.3828 15.08861021 41441","FILE":"3736460","GP_ID":"222499421","OBJECT_NAME":"STARLINK-3550","BSTAR":"0.00018976000000","RA_OF_ASC_NODE":"337.5450","RCS_SIZE":"LARGE","MEAN_MOTION_DDOT":"0.0000000000000","CENTER_NAME":"EARTH","MEAN_ELEMENT_THEORY":"SGP4","CLASSIFICATION_TYPE":"U","SEMIMAJOR_AXIS":"6917.816","DECAY_DATE":null,"EPOCH":"2023-01-08T22:12:58.817664","REV_AT_EPOCH":"4144","INCLINATION":"53.2195","ELEMENT_SET_NO":"999","OBJECT_ID":"2022-045AU","TLE_LINE1":"1 52373U 22045AU  23008.92568076  .00002735  00000-0  18976-3 0  9990","MEAN_ANOMALY":"336.3828","EPHEMERIS_TYPE":"0"},{"MEAN_ANOMALY":"319.4482","EPHEMERIS_TYPE":"0","ELEMENT_SET_NO":"999","OBJECT_ID":"2022-045AV","TLE_LINE1":"1 52374U 22045AV  23008.33322811  .00004673  00000-0  31152-3 0  9995","REV_AT_EPOCH":"4135","INCLINATION":"53.2177","EPOCH":"2023-01-08T07:59:50.908704","CLASSIFICATION_TYPE":"U","MEAN_ELEMENT_THEORY":"SGP4","DECAY_DATE":null,"SEMIMAJOR_AXIS":"6917.895","RCS_SIZE":"LARGE","RA_OF_ASC_NODE":"340.2027","MEAN_MOTION_DDOT":"0.0000000000000","CENTER_NAME":"EARTH","OBJECT_NAME":"STARLINK-3762","GP_ID":"222475168","FILE":"3736434","BSTAR":"0.00031152000000","PERIOD":"95.438","ECCENTRICITY":"0.00021380","TLE_LINE2":"2 52374  53.2177 340.2027 0002138  40.6670 319.4482 15.08835131 41352","LAUNCH_DATE":"2022-04-29","REF_FRAME":"TEME","TIME_SYSTEM":"UTC","PERIAPSIS":"538.281","COUNTRY_CODE":"US","MEAN_MOTION":"15.08835131","SITE":"AFETR","ARG_OF_PERICENTER":"40.6670","MEAN_MOTION_DOT":"0.00004673","OBJECT_TYPE":"PAYLOAD","NORAD_CAT_ID":"52374","APOAPSIS":"541.239"},{"SEMIMAJOR_AXIS":"6917.876","DECAY_DATE":null,"CLASSIFICATION_TYPE":"U","MEAN_ELEMENT_THEORY":"SGP4","CENTER_NAME":"EARTH","MEAN_MOTION_DDOT":"0.0000000000000","RA_OF_ASC_NODE":"337.5216","RCS_SIZE":"LARGE","BSTAR":"0.00005903900000","FILE":"3736460","GP_ID":"222498420","OBJECT_NAME":"STARLINK-3785","LAUNCH_DATE":"2022-04-29","TLE_LINE2":"2 52375  53.2158 337.5216 0002155  59.4054 300.7150 15.08841531 41440","PERIOD":"95.437","ECCENTRICITY":"0.00021550","EPHEMERIS_TYPE":"0","MEAN_ANOMALY":"300.7150","TLE_LINE1":"1 52375U 22045AW  23008.93307865  .00000652  00000-0  59039-4 0  9992","ELEMENT_SET_NO":"999","OBJECT_ID":"2022-045AW","INCLINATION":"53.2158","REV_AT_EPOCH":"4144","EPOCH":"2023-01-08T22:23:37.995360","MEAN_MOTION":"15.08841531","SITE":"AFETR","APOAPSIS":"541.232","NORAD_CAT_ID":"52375","OBJECT_TYPE":"PAYLOAD","MEAN_MOTION_DOT":"0.00000652","ARG_OF_PERICENTER":"59.4054","REF_FRAME":"TEME","PERIAPSIS":"538.250","TIME_SYSTEM":"UTC","COUNTRY_CODE":"US"},{"TLE_LINE1":"1 52376U 22045AX  23008.92202165  .00001521  00000-0  11365-3 0  9994","ELEMENT_SET_NO":"999","OBJECT_ID":"2022-045AX","EPHEMERIS_TYPE":"0","MEAN_ANOMALY":"327.0444","EPOCH":"2023-01-08T22:07:42.670560","REV_AT_EPOCH":"4144","INCLINATION":"53.2185","RCS_SIZE":"LARGE","RA_OF_ASC_NODE":"337.5607","CENTER_NAME":"EARTH","MEAN_MOTION_DDOT":"0.0000000000000","SEMIMAJOR_AXIS":"6917.875","DECAY_DATE":null,"MEAN_ELEMENT_THEORY":"SGP4","CLASSIFICATION_TYPE":"U","PERIOD":"95.437","ECCENTRICITY":"0.00026430","TLE_LINE2":"2 52376  53.2185 337.5607 0002643  33.0713 327.0444 15.08841678 41447","LAUNCH_DATE":"2022-04-29","OBJECT_NAME":"STARLINK-3767","GP_ID":"222498670","FILE":"3736460","BSTAR":"0.00011365000000","TIME_SYSTEM":"UTC","PERIAPSIS":"537.912","REF_FRAME":"TEME","COUNTRY_CODE":"US","MEAN_MOTION":"15.08841678","NORAD_CAT_ID":"52376","APOAPSIS":"541.569","ARG_OF_PERICENTER":"33.0713","MEAN_MOTION_DOT":"0.00001521","OBJECT_TYPE":"PAYLOAD","SITE":"AFETR"},{"RA_OF_ASC_NODE":"337.5713","RCS_SIZE":"LARGE","CENTER_NAME":"EARTH","MEAN_MOTION_DDOT":"0.0000000000000","CLASSIFICATION_TYPE":"U","MEAN_ELEMENT_THEORY":"SGP4","SEMIMAJOR_AXIS":"6917.866","DECAY_DATE":null,"ECCENTRICITY":"0.00024990","PERIOD":"95.437","TLE_LINE2":"2 52377  53.2183 337.5713 0002499  28.5797 331.5332 15.08844656 41438","LAUNCH_DATE":"2022-04-29","FILE":"3736460","GP_ID":"222499921","OBJECT_NAME":"STARLINK-3805","BSTAR":"0.00067170000000","ELEMENT_SET_NO":"999","OBJECT_ID":"2022-045AY","TLE_LINE1":"1 52377U 22045AY  23008.92298373  .00010420  00000-0  67170-3 0  9994","MEAN_ANOMALY":"331.5332","EPHEMERIS_TYPE":"0","EPOCH":"2023-01-08T22:09:05.794272","REV_AT_EPOCH":"4143","INCLINATION":"53.2183","MEAN_MOTION":"15.08844656","ARG_OF_PERICENTER":"28.5797","OBJECT_TYPE":"PAYLOAD","MEAN_MOTION_DOT":"0.00010420","NORAD_CAT_ID":"52377","APOAPSIS":"541.460","SITE":"AFETR","TIME_SYSTEM":"UTC","PERIAPSIS":"538.002","REF_FRAME":"TEME","COUNTRY_CODE":"US"}];
